1 34376U 97051FU  18212.11399168  .00000396  00000-0  12878-3 0  9994
2 34376  86.3109  93.9070 0040623  60.5256 299.9983 14.35751781493804
1 34378U 97051FW  18211.89174468 +.00002680 +00000-0 +66854-3 0  9995
2 34378 086.3537 112.6033 0057289 035.8026 324.6997 14.50293020492865
1 34383U 93036PY  18211.66895975  .00000653  00000-0  16713-3 0  9995
2 34383  74.0388  54.7720 0018319 129.4349 344.3585 14.52288214497821
1 34386U 93036QB  18211.90299663 +.00000802 +00000-0 +21031-3 0  9992
2 34386 074.0282 096.7395 0016111 107.8440 020.3728 14.50826647496040
1 34387U 93036QC  18211.94972723  .00000160  00000-0  60247-4 0  9992
2 34387  74.0428 143.7965 0042016 187.5926 291.2890 14.38607887494604
1 34388U 93036QD  18211.85818650 +.00000225 +00000-0 +82510-4 0  9990
2 34388 074.0437 163.5228 0016869 162.0298 228.5305 14.38237266493797
1 34389U 93036QE  18211.87126844  .00000135  00000-0  55337-4 0  9997
2 34389  74.0212 166.7385 0032750 209.0754 181.0494 14.35794059493375
1 34390U 93036QF  18211.53697233 +.00000558 +00000-0 +12868-3 0  9997
2 34390 074.0913 050.7124 0075350 040.4508 342.8402 14.55999545497958
1 34395U 93036QL  18211.87238941  .00001031  00000-0  24329-3 0  9998
2 34395  74.0416  85.4396 0012340  57.5435  69.8958 14.55473816495830
1 34396U 93036QM  18211.80496882 +.00000487 +00000-0 +15216-3 0  9991
2 34396 074.0418 139.0351 0018738 139.0478 251.9608 14.43314729493265
1 34397U 93036QN  18211.78915847 +.00000727 +00000-0 +89253-4 0  9996
2 34397 073.8514 078.0479 0077001 344.8401 133.6761 14.83270217505282
1 34398U 93036QP  18212.31994017  .00001820  00000-0  21010-3 0  9994
2 34398  73.9809 260.1433 0121574 329.7202 154.1506 14.81285079502452
1 34400U 93036QR  18211.59848097  .00000319  00000-0  62952-4 0  9996
2 34400  74.0052 274.1936 0068296  13.9309 346.3722 14.65501355502277
1 34401U 93036QS  18211.68662019 +.00000628 +00000-0 +15002-3 0  9991
2 34401 074.0478 054.7908 0068501 083.8189 026.3098 14.54390368499243
1 34409U 93036RA  18211.82472616 +.00000023 +00000-0 +12129-4 0  9994
2 34409 074.0657 352.6030 0085845 045.0220 106.2433 14.53655358500473
1 34410U 93036RB  18211.39164493 +.00000454 +00000-0 +91777-4 0  9993
2 34410 073.7653 194.0339 0066342 164.3807 345.9329 14.63316950501340
1 34411U 93036RC  18211.80068597 +.00001355 +00000-0 +16746-3 0  9991
2 34411 074.0350 217.5850 0084015 008.8523 044.3572 14.81444924504078
1 34412U 93036RD  18211.46207962  .00000353  00000-0  11140-3 0  9995
2 34412  73.9523 237.2106 0241148 207.3313 151.4982 14.28955575490942
1 34413U 93036RE  18211.21090544  .00000423  00000-0  21403-3 0  9996
2 34413  74.0368  36.5185 0112015  34.6151  85.5342 14.15862735489654
1 34420U 93036RM  18211.83854851 +.00000054 +00000-0 +15827-4 0  9995
2 34420 074.0338 240.0752 0115716 327.0118 085.2309 14.63388206503605
1 34422U 93036RP  18211.83223375  .00001514  00000-0  23858-3 0  9992
2 34422  73.9448 155.0047 0237307 270.8864  86.5119 14.56415000493856
1 34424U 93036RR  18211.86202637  .00000664  00000-0  11240-3 0  9992
2 34424  74.0174 268.4710 0049487 357.0221 122.9211 14.70706239502815
1 34425U 93036RS  18212.06631345  .00000511  00000-0  14662-3 0  9990
2 34425  74.0328  79.1194 0033588 147.1683 213.1572 14.47168485497157
1 34426U 93036RT  18211.73177997  .00002419  00000-0  35240-3 0  9996
2 34426  74.0415 312.5989 0015538  30.3602 120.5281 14.76362450501468
1 34427U 93036RU  18211.81694623 +.00001220 +00000-0 +20830-3 0  9994
2 34427 074.0186 354.5684 0043718 032.8002 327.5868 14.69512420499905
1 34428U 93036RV  18211.68975943  .00000762  00000-0  20212-3 0  9991
2 34428  74.0389  98.8739 0041040 123.4601 270.1174 14.49905172496692
1 34429U 93036RW  18211.82970050 +.00000363 +00000-0 +84612-4 0  9994
2 34429 074.0118 353.2959 0046623 083.2539 067.2825 14.57906478499094
1 34430U 93036RX  18212.37761655  .00000126  00000-0  53095-4 0  9994
2 34430  74.0523 195.5968 0067679 215.5207 144.1431 14.34027145493631
1 34431U 93036RY  18211.77742853 +.00000181 +00000-0 +90527-4 0  9999
2 34431 074.0798 328.9870 0075163 267.2840 091.9700 14.22117972488260
1 34432U 93036RZ  18211.79352139  .00000241  00000-0  16392-3 0  9990
2 34432  73.8322 130.5621 0194476 331.2201  57.5700 13.96833938480979
1 34433U 93036SA  18212.22622951  .00000282  00000-0  17764-3 0  9991
2 34433  74.0206 172.6600 0179660 199.7384 224.0425 14.01067447482175
1 34434U 93036SB  18209.84378933 +.00000716 +00000-0 +56746-3 0  9999
2 34434 074.0659 158.7363 0340261 187.5953 202.6247 13.69157151469728
1 34439U 93036SG  18211.90824493 +.00000468 +00000-0 +88864-4 0  9992
2 34439 074.0576 006.4499 0128502 019.4898 151.8777 14.62111130500228
1 34442U 93036SK  18211.97712361  .00000477  00000-0  92052-4 0  9997
2 34442  74.0193 285.3730 0073720   7.6906  50.5663 14.64751185502271
1 34445U 93036SN  18212.54799831  .00000929  00000-0  10116-3 0  9993
2 34445  74.0122 154.1857 0099281 206.0628 272.3510 14.86216496505751
1 34446U 93036SP  18211.97240845  .00000029  00000-0  15463-4 0  9998
2 34446  74.0414  49.7391 0052642 140.0101 220.4954 14.46795631497745
1 34447U 93036SQ  18211.88721361 +.00000965 +00000-0 +13001-3 0  9990
2 34447 074.0240 271.6305 0027223 340.1124 134.1459 14.80469492502007
1 34448U 93036SR  18212.57637442  .00004973  00000-0  38997-3 0  9998
2 34448  74.0374 261.7902 0003520 317.9047 198.2446 15.01242427502838
1 34449U 93036SS  18211.96699069  .00000597  00000-0  16997-3 0  9998
2 34449  74.0522 126.7112 0069447 145.3761 340.3811 14.46111932495317
1 34451U 93036SU  18211.89530190 +.00000591 +00000-0 +16998-3 0  9997
2 34451 074.0620 137.3597 0070562 146.0278 214.5429 14.45542087494847
1 34452U 93036SV  18211.76029672 +.00000211 +00000-0 +30384-4 0  9997
2 34452 074.0434 131.3098 0120944 204.4762 185.1830 14.78690115506876
1 34453U 93036SW  18211.86108532 +.00000758 +00000-0 +20806-3 0  9995
2 34453 074.1670 165.8905 0043236 071.8644 319.2321 14.48178477495547
1 34454U 93036SX  18211.85666597 +.00000044 +00000-0 +24287-4 0  9991
2 34454 074.0591 175.4646 0037756 195.2531 164.7487 14.35486886494170
1 34456U 93036SZ  18208.35297656 +.00001259 +00000-0 +35086-3 0  9997
2 34456 074.0457 178.4381 0063316 179.8469 330.7804 14.46192878493502
1 34457U 93036TA  18211.28460104 +.00000421 +00000-0 +83447-4 0  9999
2 34457 074.0044 319.7582 0105798 029.4086 000.0472 14.62222216500420
1 34458U 93036TB  18211.54643816  .00000820  00000-0  22224-3 0  9990
2 34458  74.0279 111.0057 0019374 115.6512 308.4028 14.49159728496111
1 34459U 93036TC  18212.01142395  .00000097  00000-0  73267-4 0  9990
2 34459  74.0783 207.4443 0199414 203.8081 155.3733 13.97097478481038
1 34464U 93036TH  18211.95279231 +.00000300 +00000-0 +62795-4 0  9999
2 34464 074.0242 294.7079 0055324 043.8961 069.3012 14.63467994501864
1 34465U 93036TJ  18211.40239297  .00000581  00000-0  14428-3 0  9998
2 34465  74.0741 113.3028 0097631 109.9268 251.2443 14.51228944496534
1 34468U 93036TM  18211.85393105 +.00000086 +00000-0 +32957-4 0  9997
2 34468 074.0149 089.9560 0081545 164.3391 196.0317 14.42644349496084
1 34469U 93036TN  18212.43688511  .00001080  00000-0  21657-3 0  9990
2 34469  74.0189  15.7012 0015747  75.0840 285.2069 14.62943619499246
1 34472U 93036TR  18211.89335576  .00000537  00000-0  46458-3 0  9995
2 34472  74.0828 172.4050 0348940 197.6969 161.1742 13.64011924470223
1 34473U 93036TS  18211.77383969 +.00000749 +00000-0 +21674-3 0  9990
2 34473 074.0317 136.6268 0025788 125.3849 264.1843 14.46019334495831
1 34474U 93036TT  18211.86523326  .00000653  00000-0  41418-3 0  9996
2 34474  74.0811 272.5734 0233195 273.0321 209.8474 13.93377283479501
1 34476U 93036TV  18211.92844330 +.00000846 +00000-0 +69505-3 0  9997
2 34476 074.0140 193.9861 0374250 265.2684 090.5606 13.62851376468245
1 34477U 93036TW  18212.12157490  .00000247  00000-0  76103-4 0  9993
2 34477  73.9820  80.6310 0092214 175.5352 350.0887 14.44344104497112
1 34478U 93036TX  18212.12208904  .00000565  00000-0  14624-3 0  9993
2 34478  74.0627  98.5391 0098294 289.0955 222.2950 14.49511368497531
1 34481U 93036UA  18211.52911147  .00000056  00000-0  34107-4 0  9994
2 34481  73.9805 262.6162 0078055 322.2221 105.0398 14.25291445490880
1 34482U 93036UB  18211.95024507 +.00000546 +00000-0 +18241-3 0  9991
2 34482 074.0493 195.1859 0077946 209.2918 184.0954 14.38134203493064
1 34486U 97051GB  18211.91216002 +.00000453 +00000-0 +10929-3 0  9997
2 34486 086.4114 100.4176 0016523 277.5800 204.9475 14.50974594497207
1 34487U 97051GC  18212.11811444  .00000094  00000-0  23329-4 0  9992
2 34487  86.3445  85.6864 0032543   1.8313 150.1044 14.39813094495104
1 34488U 97051GD  18211.55914561  .00000685  00000-0  15578-3 0  9996
2 34488  86.3441  67.5099 0023305 241.2245 118.6621 14.54385812499136
1 34489U 97051GE  18211.56687340 +.00001559 +00000-0 +49662-3 0  9992
2 34489 086.4148 152.1783 0079009 147.3332 213.2789 14.37432298490217
1 34490U 97051GF  18211.64481809 +.00002411 +00000-0 +31485-3 0  9997
2 34490 086.3263 058.6246 0047846 054.6674 341.9909 14.79237380498822
1 34492U 97051GH  18211.96103187 +.00001258 +00000-0 +72926-3 0  9997
2 34492 086.4995 285.2087 0310601 226.0185 261.9560 13.86740068475044
1 34493U 97051GJ  18212.51923964  .00001854  00000-0  34532-3 0  9996
2 34493  86.2659  44.8517 0060356  93.3810 267.4309 14.63319085496824
1 34496U 97051GM  18211.11608299 +.00002741 +00000-0 +84202-3 0  9990
2 34496 086.3937 154.0999 0077468 245.8472 113.4614 14.39582290317391
1 34497U 97051GN  18212.19788878  .00000258  00000-0  10918-3 0  9996
2 34497  86.2818 110.6106 0088921 296.0047 220.3017 14.19829486487706
1 34503U 97051GU  18211.53116434  .00000444  00000-0  92484-4 0  9990
2 34503  86.3171  48.9494 0004048  23.2085 336.9306 14.57732924499092
1 34508U 97051GZ  18211.54564401 +.00000522 +00000-0 +21276-3 0  9994
2 34508 086.3813 142.7672 0075473 221.9320 137.6077 14.24089873488923
1 34511U 97051HC  18212.45469532  .00001004  00000-0  26701-3 0  9992
2 34511  86.3889 109.9793 0025363 289.7523 124.0855 14.47452363494798
